[{"OBJECT_NAME":"YAOGAN-40 01B","OBJECT_ID":"2023-139C","EPOCH":"2026-03-09T23:20:46.305024","MEAN_MOTION":14.12430239,"ECCENTRICITY":0.00021969,"INCLINATION":85.9905,"RA_OF_ASC_NODE":304.485,"ARG_OF_PERICENTER":92.1535,"MEAN_ANOMALY":267.99,"EPHEMERIS_TYPE":0,"CLASSIFICATION_TYPE":"U","NORAD_CAT_ID":57832,"ELEMENT_SET_NO":999,"REV_AT_EPOCH":12870,"BSTAR":8.6691881e-5,"MEAN_MOTION_DOT":1.79e-6,"MEAN_MOTION_DDOT":0},{"OBJECT_NAME":"FENGYUN 1C DEB","OBJECT_ID":"1999-025EAW","EPOCH":"2026-03-06T14:24:41.408064","MEAN_MOTION":14.26069725,"ECCENTRICITY":0.00998078,"INCLINATION":99.4612,"RA_OF_ASC_NODE":108.978,"ARG_OF_PERICENTER":319.5341,"MEAN_ANOMALY":196.2415,"EPHEMERIS_TYPE":0,"CLASSIFICATION_TYPE":"U","NORAD_CAT_ID":36724,"ELEMENT_SET_NO":999,"REV_AT_EPOCH":58667,"BSTAR":0.0016353773,"MEAN_MOTION_DOT":4.069e-5,"MEAN_MOTION_DDOT":0}]
